COSMOS 2251 DEB         
1 36369U 93036AYW 15080.09979643  .00003080  00000-0  91025-3 0  9990
2 36369  74.0383 232.2142 0028111 219.9178 139.9913 14.43677800291782
COSMOS 2251 DEB         
1 36371U 93036AYY 15080.17346609  .00002918  00000-0  97509-3 0  9994
2 36371  74.0248 268.6990 0024316 180.1942 179.9206 14.37728958289678
COSMOS 2251 DEB         
1 36372U 93036AYZ 15080.29219497  .00004513  00000-0  15162-2 0  9999
2 36372  74.0127 297.8399 0047717 212.7692 147.0500 14.36815421289456
COSMOS 2251 DEB         
1 36375U 93036AZC 15070.09733678  .00009353  00000-0  22215-2 0  9995
2 36375  74.0519 220.9556 0015457 225.9080 134.0857 14.53945792303877
COSMOS 2251 DEB         
1 36376U 93036AZD 15078.39495312  .00098703  00000-0  58033-2 0  9991
2 36376  73.9950  78.6735 0116593 231.9208 127.1422 15.05582815291377
COSMOS 2251 DEB         
1 36378U 93036AZF 15080.31470900  .00011922  00000-0  15168-2 0  9994
2 36378  74.0593  45.9572 0093898  58.3457 302.6835 14.78533466293141
COSMOS 2251 DEB         
1 36379U 93036AZG 15079.25041728  .00000735  00000-0  28189-3 0  9996
2 36379  74.0122 278.0892 0049791 254.7141 227.7985 14.31636840310006
COSMOS 2251 DEB         
1 36381U 93036AZJ 15065.10863222  .00006502  00000-0  22593-2 0  9999
2 36381  74.0297 337.8875 0058699 256.6500 102.8321 14.34709383282825
COSMOS 2251 DEB         
1 36384U 93036AZM 15079.82643151  .00006044  00000-0  17098-2 0  9998
2 36384  74.0341 240.8924 0018276 183.8938 176.2081 14.45696417301127
COSMOS 2251 DEB         
1 36385U 93036AZN 15079.88695751  .00002318  00000-0  59393-3 0  9993
2 36385  73.9887 276.6158 0230943 285.2110 133.8251 14.36197481288672
COSMOS 2251 DEB         
1 36387U 93036AZQ 15077.00077696  .00008367  00000-0  29572-2 0  9994
2 36387  74.0083 319.8693 0063023 257.0136 164.4063 14.33654513283044
COSMOS 2251 DEB         
1 36419U 93036AZS 15075.07309294  .00003475  00000-0  13686-2 0  9991
2 36419  73.8535 329.8682 0108129 305.0050 118.3259 14.26409154295717
COSMOS 2251 DEB         
1 36420U 93036AZT 15079.84944536  .00000346  00000-0  13179-3 0  9998
2 36420  74.0363 260.7697 0019574 229.7615 192.6704 14.34436939289256
COSMOS 2251 DEB         
1 36422U 93036AZV 15080.05418281  .00007027  00000-0  10445-2 0  9993
2 36422  74.0136 102.5096 0135444 237.4354 121.3678 14.69058156307601
COSMOS 2251 DEB         
1 36424U 93036AZX 15079.97778332  .00005808  00000-0  24625-2 0  9990
2 36424  74.1813  71.7967 0120876 254.3071 136.5434 14.21719561280708
COSMOS 2251 DEB         
1 36430U 93036BAD 15081.04415659  .00000821  00000-0  36085-3 0  9992
2 36430  74.0084 335.8084 0103730 311.1330 109.9665 14.22320672285389
COSMOS 2251 DEB         
1 36432U 93036BAF 15081.11595935  .00030046  00000-0  33526-2 0  9996
2 36432  73.7704 356.9787 0063226 272.1269  87.3012 14.85424915286652
COSMOS 2251 DEB         
1 36435U 93036BAJ 15074.30510786  .00005212  00000-0  19308-2 0  9992
2 36435  73.8329 304.6028 0099197 284.2896  73.9195 14.29829008282988
COSMOS 2251 DEB         
1 36437U 93036BAL 15080.04472486  .00003242  00000-0  98402-3 0  9990
2 36437  73.9561 217.5063 0030273 248.0042 230.2587 14.42333156291398
COSMOS 2251 DEB         
1 36439U 93036BAN 15080.48336717  .00000885  00000-0  90615-3 0  9994
2 36439  73.9809 116.7919 0452260 128.6092 235.6974 13.40281081279095
COSMOS 2251 DEB         
1 36441U 93036BAQ 15079.02902622  .00004085  00000-0  43486-3 0  9999
2 36441  73.8474 310.0513 0177960 146.3848 214.8770 14.78296282289377
COSMOS 2251 DEB         
1 36442U 93036BAR 15080.17228273  .00004712  00000-0  14832-2 0  9990
2 36442  73.9914 254.7279 0035702 221.9278 260.1239 14.40299635290869
COSMOS 2251 DEB         
1 36447U 93036BAW 15080.43711845  .00009836  00000-0  10090-2 0  9990
2 36447  73.9400 348.5880 0103379 121.0165 240.1217 14.86576418291968
COSMOS 2251 DEB         
1 36448U 93036BAX 15080.31962086  .00004067  00000-0  13933-2 0  9993
2 36448  74.0893 313.7387 0054373 168.3824 191.8598 14.35677572274757
COSMOS 2251 DEB         
1 36451U 93036BBA 15079.36334670  .00002417  00000-0  11993-2 0  9993
2 36451  73.9417  78.4697 0214160   6.2021  56.2144 14.06486519290566
COSMOS 2251 DEB         
1 36453U 93036BBC 15081.12272303  .00001888  00000-0  63156-3 0  9996
2 36453  73.9260 242.9258 0087736 278.9908  80.1399 14.35962071282871
COSMOS 2251 DEB         
1 36454U 93036BBD 15058.76700668  .00012511  00000-0  24761-2 0  9994
2 36454  74.0163 214.7401 0015181 346.3596  13.7447 14.62296477277725
COSMOS 2251 DEB         
1 36459U 93036BBJ 15068.79033122  .00001431  00000-0  78052-3 0  9999
2 36459  74.0244 111.3580 0145730  47.1917 314.1433 14.07724525302605
COSMOS 2251 DEB         
1 36461U 93036BBL 15076.08484064  .00018762  00000-0  15217-2 0  9996
2 36461  73.9425 334.9104 0076261  65.9000   0.6776 14.97339907286721
COSMOS 2251 DEB         
1 36462U 93036BBM 15080.02657926  .00035585  00000-0  30584-2 0  9991
2 36462  73.8277 338.2263 0068459 181.1355 176.5483 14.95435915309754
COSMOS 2251 DEB         
1 36467U 93036BBS 15080.46808049  .00005123  00000-0  21969-2 0  9990
2 36467  73.8692 358.5378 0135894 338.7835 139.7598 14.20205379283210
COSMOS 2251 DEB         
1 36470U 93036BBV 15080.62998137  .00005439  00000-0  15301-2 0  9993
2 36470  73.8734 193.3153 0069483  96.3286 264.4743 14.44684426285911
COSMOS 2251 DEB         
1 36474U 93036BBZ 15080.28076545  .00041137  00000-0  20337-2 0  9999
2 36474  73.9383 294.1373 0056482  10.4947 113.1551 15.16221111295338
COSMOS 2251 DEB         
1 36476U 93036BCB 15079.78586898  .00006494  00000-0  17398-2 0  9991
2 36476  74.0351 235.1524 0020578 186.2964 239.8084 14.48273059301289
COSMOS 2251 DEB         
1 36479U 93036BCE 15080.36774867  .00017922  00000-0  19446-2 0  9999
2 36479  74.0382  44.6581 0069391  63.5463  91.1974 14.86354299298302
COSMOS 2251 DEB         
1 36480U 93036BCF 15080.91117067  .00046805  00000-0  49357-2 0  9991
2 36480  74.0083 168.5641 0007857 328.5416  31.5294 14.89046823279830
COSMOS 2251 DEB         
1 36528U 93036BCN 15076.48261147  .00001035  00000-0  47354-3 0  9992
2 36528  74.0241   5.8445 0096660 254.9706 104.0725 14.20289651283426
COSMOS 2251 DEB         
1 36529U 93036BCP 15080.47655607  .00004802  00000-0  25683-2 0  9990
2 36529  74.0507 145.7414 0180542  71.1878 290.8261 14.05408454280427
COSMOS 2251 DEB         
1 36530U 93036BCQ 15080.23552818  .00006423  00000-0  14144-2 0  9997
2 36530  74.0250 169.5534 0032497 208.2902 151.6498 14.57296277279730
COSMOS 2251 DEB         
1 36532U 93036BCS 15062.47665723  .00007696  00000-0  13032-2 0  9993
2 36532  73.9965 121.2477 0071509 223.0565 136.4828 14.67759020285221
COSMOS 2251 DEB         
1 36533U 93036BCT 15080.03176307  .00001420  00000-0  43431-3 0  9997
2 36533  74.0158 214.4275 0055195 228.2348 249.5651 14.41890149280773
COSMOS 2251 DEB         
1 36539U 93036BCZ 15080.82869984  .00001832  00000-0  52707-3 0  9993
2 36539  74.0302 202.6970 0035486 229.1957 299.4347 14.45135134272090
COSMOS 2251 DEB         
1 36540U 93036BDA 15079.51216089  .00002668  00000-0  88837-3 0  9992
2 36540  74.0347 260.6846 0023167 207.3345 183.7977 14.37959029296671
COSMOS 2251 DEB         
1 36541U 93036BDB 15076.98593985  .00022532  00000-0  60529-2 0  9993
2 36541  74.0136 285.5529 0044418 208.0354 151.8413 14.47418963291801
COSMOS 2251 DEB         
1 36542U 93036BDC 15080.30825218  .00028890  00000-0  19555-2 0  9998
2 36542  73.7911 309.5890 0098640 189.7795 170.1476 15.02433080299199
COSMOS 2251 DEB         
1 36543U 93036BDD 15076.06039099  .00010810  00000-0  28309-2 0  9991
2 36543  73.8401 218.5450 0062346 160.5643 199.7914 14.48210363291168
COSMOS 2251 DEB         
1 36544U 93036BDE 15072.36561519  .00174587  00000-0  34364-2 0  9998
2 36544  73.9311 314.1496 0060407 114.8159   5.6164 15.44553068296765
COSMOS 2251 DEB         
1 36548U 93036BDJ 15080.33420966  .00019354  00000-0  31296-2 0  9999
2 36548  74.0190 170.4945 0021941 199.1123 226.0488 14.71127342301198
COSMOS 2251 DEB         
1 36550U 93036BDL 15080.16790718  .00001140  00000-0  53789-3 0  9994
2 36550  74.0501  13.6125 0088681 287.4055 134.4409 14.18925534289778
COSMOS 2251 DEB         
1 36551U 93036BDM 15079.39072924  .00003543  00000-0  69418-3 0  9995
2 36551  73.9004  97.8810 0104388 184.7651 175.2532 14.59740638288947
COSMOS 2251 DEB         
1 36553U 93036BDP 15079.78725843  .00004763  00000-0  81123-3 0  9997
2 36553  74.0477 109.2985 0057410 155.2989 329.6637 14.68229994296785
COSMOS 2251 DEB         
1 36556U 93036BDS 15081.15487060  .00338216  00000-0  99424-2 0  9995
2 36556  73.9940 123.5346 0018921 295.7260 147.9571 15.33480159282965
COSMOS 2251 DEB         
1 36557U 93036BDT 15080.21741007  .00002093  00000-0  70134-3 0  9995
2 36557  73.9846 263.5808 0041184 239.4094 236.7010 14.37475759282593
COSMOS 2251 DEB         
1 36558U 93036BDU 15080.11500380  .00001983  00000-0  63162-3 0  9992
2 36558  74.0483 241.5657 0017682 222.2675 256.2036 14.40393660289071
COSMOS 2251 DEB         
1 36559U 93036BDV 15076.24971621  .00003634  00000-0  28673-2 0  9994
2 36559  74.1336  20.4473 0342688 289.7741  66.6727 13.67862586274068
COSMOS 2251 DEB         
1 36561U 93036BDX 15079.84575869  .00037019  00000-0  35538-2 0  9992
2 36561  74.0906 143.0894 0047835 245.2211 114.3991 14.92031802291552
COSMOS 2251 DEB         
1 36614U 93036BEC 15080.13858297  .00002420  00000-0  80550-3 0  9997
2 36614  74.0308 260.0515 0023033 206.1078 153.8916 14.38043128297081
COSMOS 2251 DEB         
1 36615U 93036BED 15074.51118495  .00010392  00000-0  41778-2 0  9997
2 36615  74.0701  98.5389 0133974  11.6734 137.5145 14.23410125266534
COSMOS 2251 DEB         
1 36617U 93036BEF 15080.81484027  .00025052  00000-0  44639-2 0  9994
2 36617  73.9885 249.8568 0139567  94.7880 266.9239 14.60746006299645
COSMOS 2251 DEB         
1 36622U 93036BEL 15079.78566352  .00001645  00000-0  33637-3 0  9995
2 36622  74.0219 112.2799 0089588 149.7257 330.9249 14.59182186268245
